{
  "type": "FeatureCollection",
  "features": [
    {
      "type": "Feature",
      "properties": {
        "norad_id": 26766,
        "name": "INTELSAT 10 (IS-10)",
        "group": "intelsat",
        "lat": -7.57430174341253,
        "lon": -0.048896062999832735,
        "alt_km": 36116.27565562442,
        "timestamp": "2025-12-11T08:58:26.781963+00:00",
        "meta_object_name": "INTELSAT 10 (IS-10)",
        "meta_object_id": "2001-019A",
        "meta_epoch": "2025-12-10T14:14:44.567232",
        "meta_mean_motion": 0.99078928,
        "meta_eccentricity": 0.00078121,
        "meta_inclination": 8.625,
        "meta_ra_of_asc_node": 61.1789,
        "meta_arg_of_pericenter": 223.6466,
        "meta_mean_anomaly": 156.4185,
        "meta_ephemeris_type": 0,
        "meta_classification_type": "U",
        "meta_norad_cat_id": 26766,
        "meta_element_set_no": 999,
        "meta_rev_at_epoch": 4371,
        "meta_bstar": 0,
        "meta_mean_motion_dot": -2.88e-06,
        "meta_mean_motion_ddot": 0,
        "tle_line1": "1 26766U 01019A   25344.59357138 -.00000288  00000+0  00000+0 0  9994",
        "tle_line2": "2 26766   8.6250  61.1789 0007812 223.6466 156.4185  0.99078928 43716"
      },
      "geometry": {
        "type": "Point",
        "coordinates": [
          -0.048896062999832735,
          -7.57430174341253
        ]
      }
    },
    {
      "type": "Feature",
      "properties": {
        "norad_id": 26900,
        "name": "INTELSAT 902 (IS-902)",
        "group": "intelsat",
        "lat": 5.644675855176287,
        "lon": 164.68319159647766,
        "alt_km": 35785.1599144251,
        "timestamp": "2025-12-11T08:58:26.781988+00:00",
        "meta_object_name": "INTELSAT 902 (IS-902)",
        "meta_object_id": "2001-039A",
        "meta_epoch": "2025-12-01T16:59:59.311968",
        "meta_mean_motion": 1.00270327,
        "meta_eccentricity": 0.00043097,
        "meta_inclination": 5.6187,
        "meta_ra_of_asc_node": 74.2002,
        "meta_arg_of_pericenter": 175.119,
        "meta_mean_anomaly": 26.3816,
        "meta_ephemeris_type": 0,
        "meta_classification_type": "U",
        "meta_norad_cat_id": 26900,
        "meta_element_set_no": 999,
        "meta_rev_at_epoch": 8871,
        "meta_bstar": 0,
        "meta_mean_motion_dot": -2.63e-06,
        "meta_mean_motion_ddot": 0,
        "tle_line1": "1 26900U 01039A   25335.70832537 -.00000263  00000+0  00000+0 0  9993",
        "tle_line2": "2 26900   5.6187  74.2002 0004309 175.1190  26.3816  1.00270327 88713"
      },
      "geometry": {
        "type": "Point",
        "coordinates": [
          164.68319159647766,
          5.644675855176287
        ]
      }
    },
    {
      "type": "Feature",
      "properties": {
        "norad_id": 27380,
        "name": "INTELSAT 904 (IS-904)",
        "group": "intelsat",
        "lat": 5.978073002622324,
        "lon": -176.44848270966207,
        "alt_km": 35787.25132146668,
        "timestamp": "2025-12-11T08:58:26.782005+00:00",
        "meta_object_name": "INTELSAT 904 (IS-904)",
        "meta_object_id": "2002-007A",
        "meta_epoch": "2025-12-11T02:13:33.121344",
        "meta_mean_motion": 1.00272878,
        "meta_eccentricity": 0.0001533,
        "meta_inclination": 6.451,
        "meta_ra_of_asc_node": 71.4509,
        "meta_arg_of_pericenter": 222.2761,
        "meta_mean_anomaly": 148.2084,
        "meta_ephemeris_type": 0,
        "meta_classification_type": "U",
        "meta_norad_cat_id": 27380,
        "meta_element_set_no": 999,
        "meta_rev_at_epoch": 4988,
        "meta_bstar": 0,
        "meta_mean_motion_dot": -2.21e-06,
        "meta_mean_motion_ddot": 0,
        "tle_line1": "1 27380U 02007A   25345.09274446 -.00000221  00000+0  00000+0 0  9998",
        "tle_line2": "2 27380   6.4510  71.4509 0001533 222.2761 148.2084  1.00272878 49889"
      },
      "geometry": {
        "type": "Point",
        "coordinates": [
          -176.44848270966207,
          5.978073002622324
        ]
      }
    },
    {
      "type": "Feature",
      "properties": {
        "norad_id": 27426,
        "name": "DIRECTV 5 (TEMPO 1)",
        "group": "intelsat",
        "lat": 2.0219696148259905,
        "lon": 104.74236730271137,
        "alt_km": 35800.34611129286,
        "timestamp": "2025-12-11T08:58:26.782019+00:00",
        "meta_object_name": "DIRECTV 5 (TEMPO 1)",
        "meta_object_id": "2002-023A",
        "meta_epoch": "2025-12-11T05:08:38.770368",
        "meta_mean_motion": 1.0027173,
        "meta_eccentricity": 0.0003525,
        "meta_inclination": 4.3986,
        "meta_ra_of_asc_node": 77.6693,
        "meta_arg_of_pericenter": 193.7723,
        "meta_mean_anomaly": 135.7724,
        "meta_ephemeris_type": 0,
        "meta_classification_type": "U",
        "meta_norad_cat_id": 27426,
        "meta_element_set_no": 999,
        "meta_rev_at_epoch": 8623,
        "meta_bstar": 0,
        "meta_mean_motion_dot": -5.1e-07,
        "meta_mean_motion_ddot": 0,
        "tle_line1": "1 27426U 02023A   25345.21433762 -.00000051  00000+0  00000+0 0  9990",
        "tle_line2": "2 27426   4.3986  77.6693 0003525 193.7723 135.7724  1.00271730 86237"
      },
      "geometry": {
        "type": "Point",
        "coordinates": [
          104.74236730271137,
          2.0219696148259905
        ]
      }
    },
    {
      "type": "Feature",
      "properties": {
        "norad_id": 27438,
        "name": "INTELSAT 905 (IS-905)",
        "group": "intelsat",
        "lat": 0.6382379708415346,
        "lon": 77.71458861849118,
        "alt_km": 35797.51038070769,
        "timestamp": "2025-12-11T08:58:26.782032+00:00",
        "meta_object_name": "INTELSAT 905 (IS-905)",
        "meta_object_id": "2002-027A",
        "meta_epoch": "2025-12-10T10:38:24.492192",
        "meta_mean_motion": 1.00272307,
        "meta_eccentricity": 0.00027995,
        "meta_inclination": 6.2803,
        "meta_ra_of_asc_node": 72.0822,
        "meta_arg_of_pericenter": 193.4676,
        "meta_mean_anomaly": 196.2661,
        "meta_ephemeris_type": 0,
        "meta_classification_type": "U",
        "meta_norad_cat_id": 27438,
        "meta_element_set_no": 999,
        "meta_rev_at_epoch": 4947,
        "meta_bstar": 0,
        "meta_mean_motion_dot": 9.7e-07,
        "meta_mean_motion_ddot": 0,
        "tle_line1": "1 27438U 02027A   25344.44333903  .00000097  00000+0  00000+0 0  9996",
        "tle_line2": "2 27438   6.2803  72.0822 0002799 193.4676 196.2661  1.00272307 49476"
      },
      "geometry": {
        "type": "Point",
        "coordinates": [
          77.71458861849118,
          0.6382379708415346
        ]
      }
    },
    {
      "type": "Feature",
      "properties": {
        "norad_id": 27445,
        "name": "GALAXY 3C (G-3C)",
        "group": "intelsat",
        "lat": 2.08948359808477,
        "lon": 120.02436541131482,
        "alt_km": 35783.413660951206,
        "timestamp": "2025-12-11T08:58:26.782044+00:00",
        "meta_object_name": "GALAXY 3C (G-3C)",
        "meta_object_id": "2002-030A",
        "meta_epoch": "2025-12-10T12:09:57.138912",
        "meta_mean_motion": 1.00271053,
        "meta_eccentricity": 0.000111,
        "meta_inclination": 3.259,
        "meta_ra_of_asc_node": 80.5266,
        "meta_arg_of_pericenter": 95.032,
        "meta_mean_anomaly": 351.5472,
        "meta_ephemeris_type": 0,
        "meta_classification_type": "U",
        "meta_norad_cat_id": 27445,
        "meta_element_set_no": 999,
        "meta_rev_at_epoch": 4460,
        "meta_bstar": 0,
        "meta_mean_motion_dot": -1.49e-06,
        "meta_mean_motion_ddot": 0,
        "tle_line1": "1 27445U 02030A   25344.50691133 -.00000149  00000+0  00000+0 0  9996",
        "tle_line2": "2 27445   3.2590  80.5266 0001110  95.0320 351.5472  1.00271053 44602"
      },
      "geometry": {
        "type": "Point",
        "coordinates": [
          120.02436541131482,
          2.08948359808477
        ]
      }
    },
    {
      "type": "Feature",
      "properties": {
        "norad_id": 27513,
        "name": "INTELSAT 906 (IS-906)",
        "group": "intelsat",
        "lat": -2.1680003357687525,
        "lon": -80.99474454272018,
        "alt_km": 35761.132482733694,
        "timestamp": "2025-12-11T08:58:26.782057+00:00",
        "meta_object_name": "INTELSAT 906 (IS-906)",
        "meta_object_id": "2002-041A",
        "meta_epoch": "2025-12-10T20:41:42.470304",
        "meta_mean_motion": 1.00271229,
        "meta_eccentricity": 0.0006143,
        "meta_inclination": 5.324,
        "meta_ra_of_asc_node": 75.2537,
        "meta_arg_of_pericenter": 191.2256,
        "meta_mean_anomaly": 187.9112,
        "meta_ephemeris_type": 0,
        "meta_classification_type": "U",
        "meta_norad_cat_id": 27513,
        "meta_element_set_no": 999,
        "meta_rev_at_epoch": 8514,
        "meta_bstar": 0,
        "meta_mean_motion_dot": 1.7e-07,
        "meta_mean_motion_ddot": 0,
        "tle_line1": "1 27513U 02041A   25344.86229711  .00000017  00000+0  00000+0 0  9995",
        "tle_line2": "2 27513   5.3240  75.2537 0006143 191.2256 187.9112  1.00271229 85144"
      },
      "geometry": {
        "type": "Point",
        "coordinates": [
          -80.99474454272018,
          -2.1680003357687525
        ]
      }
    }
  ]
}